NORAD_CAT_ID,OBJECT_NAME,OBJECT_TYPE,EPOCH,MEAN_MOTION,ECCENTRICITY,INCLINATION,RA_OF_ASC_NODE,ARG_OF_PERICENTER,MEAN_ANOMALY,BSTAR,MEAN_MOTION_DOT,MEAN_MOTION_DDOT,TLE_LINE0,TLE_LINE1,TLE_LINE2,SEMIMAJOR_AXIS,PERIOD,APOGEE,PERIGEE,DECAYED
51129.0,STARLINK-3396,PAYLOAD,2022-04-17 06:00:00,15.18391817,0.0001855,53.2174,204.8582,42.7123,176.7735,-0.037284,-0.00723139,0.0,0 STARLINK-3396,1 51129U 22005AB  22107.25001157 -.00723139  00000-0 -37284-1 0  9992,2 51129  53.2174 204.8582 0001855  42.7123 176.7735 15.18391817 15117,6888.837,94.837,511.98,509.425,0.0
51129.0,STARLINK-3396,PAYLOAD,2022-04-17 14:00:01,15.178808800000002,0.0002058,53.2174,203.3445,36.7382,205.5074,-0.037784,-0.00722166,0.0,0 STARLINK-3396,1 51129U 22005AB  22107.58334491 -.00722166  00000-0 -37784-1 0  9992,2 51129  53.2174 203.3445 0002058  36.7382 205.5074 15.17880880  3650,6890.3830000000025,94.869,513.6659999999998,510.83,0.0
51129.0,STARLINK-3396,PAYLOAD,2022-04-17 22:00:00,15.17372816,0.0001631999999999,53.2174,201.8292,49.9653,214.4278,-0.038538,-0.00725551,0.0,0 STARLINK-3396,1 51129U 22005AB  22107.91667824 -.00725551  00000-0 -38538-1 0  9997,2 51129  53.2174 201.8292 0001632  49.9653 214.4278 15.17372816  3646,6891.920999999999,94.901,514.911,512.6619999999998,0.0
51129.0,STARLINK-3396,PAYLOAD,2022-04-18 14:00:01,15.16351704,0.0002031,53.2175,198.8049,34.0792,272.7702,-0.039548,-0.00723235,0.0,0 STARLINK-3396,1 51129U 22005AB  22108.58334491 -.00723235  00000-0 -39548-1 0  9991,2 51129  53.2175 198.8049 0002031  34.0792 272.7702 15.16351704 15313,6895.015,94.965,518.28,515.48,0.0
51129.0,STARLINK-3396,PAYLOAD,2022-04-18 22:00:00,15.15843099,0.0001565999999999,53.2174,197.293,47.2918,279.867,-0.040297,-0.00726019,0.0,0 STARLINK-3396,1 51129U 22005AB  22108.91667824 -.00726019  00000-0 -40297-1 0  9993,2 51129  53.2174 197.2930 0001566  47.2918 279.8670 15.15843099  3649,6896.557,94.997,519.502,517.342,0.0
51129.0,STARLINK-3396,PAYLOAD,2022-04-19 14:00:01,15.14822596,0.000206,53.2175,194.276,30.5444,335.3937,-0.041406,-0.00724756,0.0,0 STARLINK-3396,1 51129U 22005AB  22109.58334491 -.00724756  00000-0 -41406-1 0  9997,2 51129  53.2175 194.2760 0002060  30.5444 335.3937 15.14822596  3649,6899.654,95.061,522.941,520.0980000000002,0.0
51129.0,STARLINK-3396,PAYLOAD,2022-04-19 22:00:00,15.143126,0.000179,53.2175,192.7675,35.6421,348.7677,-0.042031,-0.00725064,0.0,0 STARLINK-3396,1 51129U 22005AB  22109.91667824 -.00725064  00000-0 -42031-1 0  9991,2 51129  53.2175 192.7675 0001790  35.6421 348.7677 15.14312600 15526,6901.203,95.093,524.304,521.8330000000002,0.0
51129.0,STARLINK-3396,PAYLOAD,2022-04-20 14:00:01,15.13292584,0.0001801,53.2176,189.7577,39.1852,20.3271,-0.043242,-0.00724771,0.0,0 STARLINK-3396,1 51129U 22005AB  22110.58334491 -.00724771  00000-0 -43242-1 0  9996,2 51129  53.2176 189.7577 0001801  39.1852  20.3271 15.13292584  3644,6904.304,95.157,527.4119999999998,524.9259999999998,0.0
51129.0,STARLINK-3396,PAYLOAD,2022-04-20 22:00:00,15.12781949,0.000183,53.2175,188.2527,36.729,39.4167,-0.043794,-0.00723632,0.0,0 STARLINK-3396,1 51129U 22005AB  22110.91667824 -.00723632  00000-0 -43794-1 0  9999,2 51129  53.2175 188.2527 0001830  36.7290  39.4167 15.12781949  3634,6905.858,95.189,528.986,526.4590000000002,0.0
51129.0,STARLINK-3396,PAYLOAD,2022-04-21 06:00:00,15.12270709,0.0002017,53.2177,186.7498,33.0467,59.1192,-0.044244,-0.00720872,0.0,0 STARLINK-3396,1 51129U 22005AB  22111.25001157 -.00720872  00000-0 -44244-1 0  9992,2 51129  53.2177 186.7498 0002017  33.0467  59.1192 15.12270709 15727,6907.4140000000025,95.221,530.672,527.886,0.0
51129.0,STARLINK-3396,PAYLOAD,2022-04-21 14:00:01,15.11761495,0.0001987,53.2176,185.2501,36.4301,71.1415,-0.045017,-0.00722929,0.0,0 STARLINK-3396,1 51129U 22005AB  22111.58334491 -.00722929  00000-0 -45017-1 0  9992,2 51129  53.2176 185.2501 0001987  36.4301  71.1415 15.11761495  3651,6908.965,95.253,532.203,529.457,0.0
51129.0,STARLINK-3396,PAYLOAD,2022-04-21 22:00:00,15.11251563,0.0001761999999999,53.2175,183.7486,43.521,78.8453,-0.045639,-0.00722557,0.0,0 STARLINK-3396,1 51129U 22005AB  22111.91667824 -.00722557  00000-0 -45639-1 0  9995,2 51129  53.2175 183.7486 0001762  43.5210  78.8453 15.11251563  3638,6910.519,95.285,533.602,531.1659999999998,0.0
51129.0,STARLINK-3396,PAYLOAD,2022-04-22 06:00:00,15.10740918,0.0001757,53.2177,182.2493,45.7701,90.7778,-0.046198,-0.00721181,0.0,0 STARLINK-3396,1 51129U 22005AB  22112.25001157 -.00721181  00000-0 -46198-1 0  9997,2 51129  53.2177 182.2493 0001757  45.7701  90.7778 15.10740918 15873,6912.076,95.317,535.156,532.727,0.0
51129.0,STARLINK-3396,PAYLOAD,2022-04-22 14:00:01,15.10230176,0.000205,53.2176,180.7532,36.8187,113.2971,-0.046809,-0.00720512,0.0,0 STARLINK-3396,1 51129U 22005AB  22112.58334491 -.00720512  00000-0 -46809-1 0  9999,2 51129  53.2176 180.7532 0002050  36.8187 113.2971 15.10230176  3643,6913.634,95.35,536.9169999999998,534.082,0.0
51129.0,STARLINK-3396,PAYLOAD,2022-04-23 06:00:02,15.09086694,0.0001837,53.2177,177.75799999999995,41.9898,133.5108,-0.022854,-0.00349128,0.0,0 STARLINK-3396,1 51129U 22005AB  22113.25002315 -.00349128  00000-0 -22854-1 0  9995,2 51129  53.2177 177.7580 0001837  41.9898 133.5108 15.09086694 16026,6917.126,95.422,540.262,537.721,0.0
51129.0,STARLINK-3396,PAYLOAD,2022-04-23 14:00:01,15.08802567,0.0002191,53.2205,176.2543,47.8115,139.3968,0.0035945,0.00057326,0.0,0 STARLINK-3396,1 51129U 22005AB  22113.58334491  .00057326  00000-0  35945-2 0  9994,2 51129  53.2205 176.2543 0002191  47.8115 139.3968 15.08802567 16079,6917.995,95.44,541.376,538.344,0.0
51129.0,STARLINK-3396,PAYLOAD,2022-04-24 06:00:00,15.08907934,0.0001919,53.2206,173.2606,51.2773,159.095,-0.0043239,-0.00068577,0.0,0 STARLINK-3396,1 51129U 22005AB  22114.25001157 -.00068577  00000-0 -43239-2 0  9996,2 51129  53.2206 173.2606 0001919  51.2773 159.0950 15.08907934 16178,6917.6730000000025,95.433,540.865,538.21,0.0
51129.0,STARLINK-3396,PAYLOAD,2022-04-24 14:00:01,15.08817293,0.0001982,53.2205,171.7658,41.2907,180.7353,-0.00022346,-3.841e-05,0.0,0 STARLINK-3396,1 51129U 22005AB  22114.58334491 -.00003841  00000-0 -22346-3 0  9992,2 51129  53.2205 171.7658 0001982  41.2907 180.7353 15.08817293  3638,6917.95,95.439,541.186,538.444,0.0
51129.0,STARLINK-3396,PAYLOAD,2022-04-25 06:00:00,15.08862533,0.0001903,53.2206,168.77200000000005,47.6253,197.5441,-0.00057284,-9.399e-05,0.0,0 STARLINK-3396,1 51129U 22005AB  22115.25001157 -.00009399  00000-0 -57284-3 0  9990,2 51129  53.2206 168.7720 0001903  47.6253 197.5441 15.08862533 16323,6917.812,95.436,540.993,538.36,0.0
51129.0,STARLINK-3396,PAYLOAD,2022-04-25 14:00:01,15.08841081,0.0002041,53.2206,167.2772,40.9751,215.8078,0.00038317,5.815e-05,0.0,0 STARLINK-3396,1 51129U 22005AB  22115.58334491  .00005815  00000-0  38317-3 0  9999,2 51129  53.2206 167.2772 0002041  40.9751 215.8078 15.08841081  3643,6917.877,95.437,541.154,538.33,0.0
51129.0,STARLINK-3396,PAYLOAD,2022-04-25 22:00:00,15.08826947,0.000186,53.2207,165.7791,42.7408,225.654,0.0013929,0.00021942,0.0,0 STARLINK-3396,1 51129U 22005AB  22115.91667824  .00021942  00000-0  13929-2 0  9995,2 51129  53.2207 165.7791 0001860  42.7408 225.6540 15.08826947  3631,6917.92,95.438,541.072,538.499,0.0
51129.0,STARLINK-3396,PAYLOAD,2022-04-26 14:00:01,15.08842965,0.0002062,53.2208,162.7884,39.0676,252.5891,0.00082489,0.00012866,0.0,0 STARLINK-3396,1 51129U 22005AB  22116.58335648  .00012866  00000-0  82489-3 0  9998,2 51129  53.2208 162.7884 0002062  39.0676 252.5891 15.08842965 16521,6917.871,95.437,541.163,538.31,0.0
51129.0,STARLINK-3396,PAYLOAD,2022-04-26 22:00:00,15.08819537,0.0001865,53.2208,161.2912,41.5634,261.6445,0.0018154,0.00028706,0.0,0 STARLINK-3396,1 51129U 22005AB  22116.91667824  .00028706  00000-0  18154-2 0  9996,2 51129  53.2208 161.2912 0001865  41.5634 261.6445 15.08819537  3609,6917.943,95.439,541.0980000000002,538.518,0.0
51129.0,STARLINK-3396,PAYLOAD,2022-04-27 14:00:01,15.08843343,0.0002063,53.2209,158.2996,36.9009,289.5593,0.00043156,6.587e-05,0.0,0 STARLINK-3396,1 51129U 22005AB  22117.58335648  .00006587  00000-0  43156-3 0  9990,2 51129  53.2209 158.2996 0002063  36.9009 289.5593 15.08843343 16679,6917.87,95.437,541.1619999999998,538.308,0.0
51129.0,STARLINK-3396,PAYLOAD,2022-04-28 14:00:01,15.088437900000002,0.0002037,53.2208,153.8109,35.0359,326.1595,0.0010481,0.00016434,0.0,0 STARLINK-3396,1 51129U 22005AB  22118.58334491  .00016434  00000-0  10481-2 0  9992,2 51129  53.2208 153.8109 0002037  35.0359 326.1595 15.08843790  3632,6917.869000000002,95.437,541.143,538.325,0.0
51129.0,STARLINK-3396,PAYLOAD,2022-04-28 20:00:01,15.08856046,0.0001868,53.221,152.6871,37.8607,242.0471,-0.0018691,-0.00029925,0.0,0 STARLINK-3396,1 51129U 22005AB  22118.83334491 -.00029925  00000-0 -18691-2 0  9992,2 51129  53.2210 152.6871 0001868  37.8607 242.0471 15.08856046 16861,6917.831,95.437,540.989,538.404,0.0
51129.0,STARLINK-3396,PAYLOAD,2022-04-29 14:00:01,15.08810108,0.0002077,53.2204,149.322,36.8686,359.1258,0.0020836,0.00033001,0.0,0 STARLINK-3396,1 51129U 22005AB  22119.58334491  .00033001  00000-0  20836-2 0  9997,2 51129  53.2204 149.3220 0002077  36.8686 359.1258 15.08810108 16989,6917.972,95.439,541.274,538.4,0.0
51129.0,STARLINK-3396,PAYLOAD,2022-04-29 22:00:00,15.08808181,0.0001857,53.2203,147.82399999999996,42.4743,5.1064,0.0031254,0.00049761,0.0,0 STARLINK-3396,1 51129U 22005AB  22119.91667824  .00049761  00000-0  31254-2 0  9999,2 51129  53.2203 147.8240 0001857  42.4743   5.1064 15.08808181  3634,6917.978,95.44,541.127,538.558,0.0
51129.0,STARLINK-3396,PAYLOAD,2022-04-30 06:00:00,15.08853438,0.0001971,53.2204,146.3288,42.0068,17.1458,-0.0015839,-0.00025417,0.0,0 STARLINK-3396,1 51129U 22005AB  22120.25001157 -.00025417  00000-0 -15839-2 0  9994,2 51129  53.2204 146.3288 0001971  42.0068  17.1458 15.08853438 17083,6917.839,95.437,541.068,538.341,0.0
